{
  "type": "FeatureCollection",
  "features": [
    {
      "type": "Feature",
      "properties": {
        "norad_id": 55973,
        "name": "TIANMU-1 03",
        "group": "weather",
        "lat": -3.6910297303942134,
        "lon": -25.304498202010354,
        "alt_km": 448.64481359786714,
        "timestamp": "2025-12-18T08:58:43.035147+00:00",
        "meta_object_name": "TIANMU-1 03",
        "meta_object_id": "2023-039A",
        "meta_epoch": "2025-12-17T22:50:04.272576",
        "meta_mean_motion": 15.41073492,
        "meta_eccentricity": 0.00041956,
        "meta_inclination": 97.5101,
        "meta_ra_of_asc_node": 154.7487,
        "meta_arg_of_pericenter": 46.3803,
        "meta_mean_anomaly": 313.7791,
        "meta_ephemeris_type": 0,
        "meta_classification_type": "U",
        "meta_norad_cat_id": 55973,
        "meta_element_set_no": 999,
        "meta_rev_at_epoch": 15286,
        "meta_bstar": 0.00030569043,
        "meta_mean_motion_dot": 0.00012556,
        "meta_mean_motion_ddot": 0,
        "tle_line1": "1 55973U 23039A   25351.95143834  .00012556  00000+0  30569-3 0  9993",
        "tle_line2": "2 55973  97.5101 154.7487 0004195  46.3803 313.7791 15.41073492152862"
      },
      "geometry": {
        "type": "Point",
        "coordinates": [
          -25.304498202010354,
          -3.6910297303942134
        ]
      }
    },
    {
      "type": "Feature",
      "properties": {
        "norad_id": 55974,
        "name": "TIANMU-1 04",
        "group": "weather",
        "lat": -55.030030079139586,
        "lon": 165.234000082094,
        "alt_km": 449.2421533668876,
        "timestamp": "2025-12-18T08:58:43.035167+00:00",
        "meta_object_name": "TIANMU-1 04",
        "meta_object_id": "2023-039B",
        "meta_epoch": "2025-12-17T23:52:18.821856",
        "meta_mean_motion": 15.41415019,
        "meta_eccentricity": 0.00048073,
        "meta_inclination": 97.5033,
        "meta_ra_of_asc_node": 153.982,
        "meta_arg_of_pericenter": 40.2067,
        "meta_mean_anomaly": 319.9535,
        "meta_ephemeris_type": 0,
        "meta_classification_type": "U",
        "meta_norad_cat_id": 55974,
        "meta_element_set_no": 999,
        "meta_rev_at_epoch": 15287,
        "meta_bstar": 0.0003218097,
        "meta_mean_motion_dot": 0.00013377,
        "meta_mean_motion_ddot": 0,
        "tle_line1": "1 55974U 23039B   25351.99466229  .00013377  00000+0  32181-3 0  9998",
        "tle_line2": "2 55974  97.5033 153.9820 0004807  40.2067 319.9535 15.41415019152874"
      },
      "geometry": {
        "type": "Point",
        "coordinates": [
          165.234000082094,
          -55.030030079139586
        ]
      }
    },
    {
      "type": "Feature",
      "properties": {
        "norad_id": 55975,
        "name": "TIANMU-1 05",
        "group": "weather",
        "lat": -31.292032958252598,
        "lon": 159.4624740632187,
        "alt_km": 449.36640360956517,
        "timestamp": "2025-12-18T08:58:43.035179+00:00",
        "meta_object_name": "TIANMU-1 05",
        "meta_object_id": "2023-039C",
        "meta_epoch": "2025-12-17T23:45:53.966016",
        "meta_mean_motion": 15.41031519,
        "meta_eccentricity": 0.00042169,
        "meta_inclination": 97.5079,
        "meta_ra_of_asc_node": 154.4701,
        "meta_arg_of_pericenter": 63.8753,
        "meta_mean_anomaly": 296.2926,
        "meta_ephemeris_type": 0,
        "meta_classification_type": "U",
        "meta_norad_cat_id": 55975,
        "meta_element_set_no": 999,
        "meta_rev_at_epoch": 15285,
        "meta_bstar": 0.00030153658,
        "meta_mean_motion_dot": 0.00012367,
        "meta_mean_motion_ddot": 0,
        "tle_line1": "1 55975U 23039C   25351.99020794  .00012367  00000+0  30154-3 0  9998",
        "tle_line2": "2 55975  97.5079 154.4701 0004216  63.8753 296.2926 15.41031519152854"
      },
      "geometry": {
        "type": "Point",
        "coordinates": [
          159.4624740632187,
          -31.292032958252598
        ]
      }
    },
    {
      "type": "Feature",
      "properties": {
        "norad_id": 55976,
        "name": "TIANMU-1 06",
        "group": "weather",
        "lat": -65.59621394744654,
        "lon": 172.23612693693872,
        "alt_km": 450.70380143913826,
        "timestamp": "2025-12-18T08:58:43.035189+00:00",
        "meta_object_name": "TIANMU-1 06",
        "meta_object_id": "2023-039D",
        "meta_epoch": "2025-12-17T23:55:11.481888",
        "meta_mean_motion": 15.414667,
        "meta_eccentricity": 0.00044907,
        "meta_inclination": 97.509,
        "meta_ra_of_asc_node": 154.9461,
        "meta_arg_of_pericenter": 58.3216,
        "meta_mean_anomaly": 301.8468,
        "meta_ephemeris_type": 0,
        "meta_classification_type": "U",
        "meta_norad_cat_id": 55976,
        "meta_element_set_no": 999,
        "meta_rev_at_epoch": 15287,
        "meta_bstar": 0.0003182983,
        "meta_mean_motion_dot": 0.00013252,
        "meta_mean_motion_ddot": 0,
        "tle_line1": "1 55976U 23039D   25351.99666067  .00013252  00000+0  31830-3 0  9994",
        "tle_line2": "2 55976  97.5090 154.9461 0004490  58.3216 301.8468 15.41466700152873"
      },
      "geometry": {
        "type": "Point",
        "coordinates": [
          172.23612693693872,
          -65.59621394744654
        ]
      }
    },
    {
      "type": "Feature",
      "properties": {
        "norad_id": 56232,
        "name": "FENGYUN 3G",
        "group": "weather",
        "lat": -36.63621160616639,
        "lon": 159.71782686407465,
        "alt_km": 413.46404255085235,
        "timestamp": "2025-12-18T08:58:43.035199+00:00",
        "meta_object_name": "FENGYUN 3G",
        "meta_object_id": "2023-055A",
        "meta_epoch": "2025-12-17T22:23:44.860704",
        "meta_mean_motion": 15.53949654,
        "meta_eccentricity": 0.00093217,
        "meta_inclination": 49.9923,
        "meta_ra_of_asc_node": 200.6494,
        "meta_arg_of_pericenter": 172.095,
        "meta_mean_anomaly": 188.0167,
        "meta_ephemeris_type": 0,
        "meta_classification_type": "U",
        "meta_norad_cat_id": 56232,
        "meta_element_set_no": 999,
        "meta_rev_at_epoch": 15183,
        "meta_bstar": 0.00039380189,
        "meta_mean_motion_dot": 0.00025587,
        "meta_mean_motion_ddot": 0,
        "tle_line1": "1 56232U 23055A   25351.93315811  .00025587  00000+0  39380-3 0  9992",
        "tle_line2": "2 56232  49.9923 200.6494 0009321 172.0950 188.0167 15.53949654151830"
      },
      "geometry": {
        "type": "Point",
        "coordinates": [
          159.71782686407465,
          -36.63621160616639
        ]
      }
    },
    {
      "type": "Feature",
      "properties": {
        "norad_id": 57166,
        "name": "METEOR-M2 3",
        "group": "weather",
        "lat": -44.014364467701405,
        "lon": 54.25973243325863,
        "alt_km": 816.3348316759138,
        "timestamp": "2025-12-18T08:58:43.035209+00:00",
        "meta_object_name": "METEOR-M2 3",
        "meta_object_id": "2023-091A",
        "meta_epoch": "2025-12-17T23:04:11.553312",
        "meta_mean_motion": 14.24026644,
        "meta_eccentricity": 0.00036083,
        "meta_inclination": 98.6373,
        "meta_ra_of_asc_node": 45.4093,
        "meta_arg_of_pericenter": 353.4262,
        "meta_mean_anomaly": 6.6869,
        "meta_ephemeris_type": 0,
        "meta_classification_type": "U",
        "meta_norad_cat_id": 57166,
        "meta_element_set_no": 999,
        "meta_rev_at_epoch": 12872,
        "meta_bstar": 2.1086908e-05,
        "meta_mean_motion_dot": 5e-08,
        "meta_mean_motion_ddot": 0,
        "tle_line1": "1 57166U 23091A   25351.96124483  .00000005  00000+0  21087-4 0  9999",
        "tle_line2": "2 57166  98.6373  45.4093 0003608 353.4262   6.6869 14.24026644128728"
      },
      "geometry": {
        "type": "Point",
        "coordinates": [
          54.25973243325863,
          -44.014364467701405
        ]
      }
    },
    {
      "type": "Feature",
      "properties": {
        "norad_id": 57399,
        "name": "TIANMU-1 07",
        "group": "weather",
        "lat": 82.70474401555387,
        "lon": -49.464511750439904,
        "alt_km": 470.44878194295234,
        "timestamp": "2025-12-18T08:58:43.035219+00:00",
        "meta_object_name": "TIANMU-1 07",
        "meta_object_id": "2023-101A",
        "meta_epoch": "2025-12-17T23:09:23.446944",
        "meta_mean_motion": 15.28145343,
        "meta_eccentricity": 0.00054237,
        "meta_inclination": 97.2875,
        "meta_ra_of_asc_node": 41.6998,
        "meta_arg_of_pericenter": 68.5507,
        "meta_mean_anomaly": 291.6311,
        "meta_ephemeris_type": 0,
        "meta_classification_type": "U",
        "meta_norad_cat_id": 57399,
        "meta_element_set_no": 999,
        "meta_rev_at_epoch": 13395,
        "meta_bstar": 0.00022491,
        "meta_mean_motion_dot": 6.1e-05,
        "meta_mean_motion_ddot": 0,
        "tle_line1": "1 57399U 23101A   25351.96485471  .00006100  00000+0  22491-3 0  9997",
        "tle_line2": "2 57399  97.2875  41.6998 0005423  68.5507 291.6311 15.28145343133955"
      },
      "geometry": {
        "type": "Point",
        "coordinates": [
          -49.464511750439904,
          82.70474401555387
        ]
      }
    }
  ]
}